{"type":"FeatureCollection","features":[{"type":"Feature","geometry":{"type":"MultiPolygon","coordinates":[[[[-0.159684,38.883508],[-0.148077,38.858431],[-0.070616,38.885721],[-0.034678,38.856893],[-0.024796,38.872552],[-0.037515,38.886932],[0.015272,38.863793],[0.1258,38.848596],[0.109504,38.845527],[0.197524,38.80405],[0.182058,38.793852],[0.190243,38.773467],[0.224766,38.764284],[0.221653,38.758253],[0.223996,38.748964],[0.233921,38.736933],[0.182412,38.720781],[0.148607,38.679257],[0.098461,38.672841],[0.073594,38.644696],[0.083863,38.631029],[0.051371,38.641305],[0.030551,38.625919],[-0.015885,38.626663],[-0.06174,38.582048],[-0.049584,38.562192],[-0.097558,38.523471],[-0.151979,38.535044],[-0.375013,38.443044],[-0.404572,38.401455],[-0.40384,38.352477],[-0.444264,38.36325],[-0.510627,38.325899],[-0.513711,38.197459],[-0.595266,38.187877],[-0.630846,38.148935],[-0.64764,37.999989],[-0.665976,37.976223],[-0.696742,37.969468],[-0.719825,37.911381],[-0.749058,37.899733],[-0.762393,37.846951],[-0.831909,37.865127],[-0.921188,37.944238],[-1.022599,38.07569],[-1.036762,38.13772],[-0.988546,38.199531],[-0.967677,38.27564],[-0.989153,38.320877],[-1.084384,38.346216],[-1.088062,38.367768],[-1.077206,38.43147],[-1.094162,38.437929],[-1.013645,38.49673],[-1.026062,38.522819],[-1.001569,38.572675],[-1.026933,38.655517],[-0.962466,38.656925],[-0.915793,38.695965],[-0.961429,38.774792],[-0.928938,38.783834],[-0.904989,38.76708],[-0.861693,38.77089],[-0.834622,38.732431],[-0.734931,38.759445],[-0.707189,38.733819],[-0.644026,38.728138],[-0.642469,38.70414],[-0.618051,38.686653],[-0.507115,38.742975],[-0.529627,38.767095],[-0.565642,38.755427],[-0.59129,38.796818],[-0.461877,38.807645],[-0.40339,38.839714],[-0.381436,38.834899],[-0.310809,38.881511],[-0.23054,38.85349],[-0.159684,38.883508]],[[-0.721108,37.92103],[-0.72107,37.921497],[-0.721342,37.921539],[-0.721554,37.920957],[-0.721108,37.92103]],[[0.086456,38.659564],[0.086537,38.659859],[0.086076,38.659547],[0.086268,38.659488],[0.086456,38.659564]],[[-0.720814,37.92024],[-0.720743,37.920492],[-0.721101,37.92027],[-0.721011,37.920052],[-0.720814,37.92024]],[[0.2319,38.736502],[0.231759,38.736687],[0.231645,38.736708],[0.23162,38.736663],[0.2319,38.736502]],[[0.155892,38.691754],[0.155944,38.691896],[0.155888,38.691916],[0.155768,38.691811],[0.155892,38.691754]]],[[[-0.4802,38.166964],[-0.472034,38.166473],[-0.464887,38.163228],[-0.484339,38.166422],[-0.4802,38.166964]],[[-0.476419,38.166081],[-0.476469,38.166262],[-0.476769,38.166179],[-0.476614,38.166031],[-0.476419,38.166081]]],[[[0.230722,38.756921],[0.23046,38.753608],[0.228202,38.753856],[0.228885,38.756845],[0.230722,38.756921]]],[[[-0.129633,38.503342],[-0.12903,38.501201],[-0.133016,38.502155],[-0.13122,38.504075],[-0.129633,38.503342]]],[[[0.218626,38.72623],[0.218131,38.726216],[0.215068,38.727409],[0.216277,38.7277],[0.218626,38.72623]]],[[[-0.485836,38.166707],[-0.485117,38.1667],[-0.484581,38.166364],[-0.486594,38.166885],[-0.485836,38.166707]]],[[[-0.071788,38.537316],[-0.072585,38.536336],[-0.073445,38.536619],[-0.072954,38.537138],[-0.071788,38.537316]]],[[[-0.473527,38.161252],[-0.47456,38.161067],[-0.474744,38.161684],[-0.474388,38.161757],[-0.473527,38.161252]]],[[[-0.019344,38.616634],[-0.019966,38.616587],[-0.019685,38.617282],[-0.019184,38.617161],[-0.019344,38.616634]]],[[[-0.459277,38.161467],[-0.459611,38.161357],[-0.459858,38.161813],[-0.459192,38.161943],[-0.459277,38.161467]]],[[[-0.538875,38.185627],[-0.538458,38.186474],[-0.538253,38.18647],[-0.538296,38.186201],[-0.538875,38.185627]]],[[[-0.484459,38.164578],[-0.484758,38.164512],[-0.484965,38.164805],[-0.484574,38.164896],[-0.484459,38.164578]]],[[[0.234171,38.742466],[0.233826,38.742476],[0.233866,38.742853],[0.234175,38.742809],[0.234171,38.742466]]],[[[0.224468,38.76123],[0.224126,38.761311],[0.224121,38.761455],[0.224495,38.761571],[0.224468,38.76123]]],[[[-0.464225,38.162908],[-0.464446,38.162804],[-0.464664,38.163097],[-0.464411,38.163146],[-0.464225,38.162908]]],[[[-0.454652,38.16188],[-0.454947,38.161905],[-0.454938,38.162166],[-0.454632,38.162114],[-0.454652,38.16188]]],[[[0.231503,38.75217],[0.231203,38.752265],[0.231693,38.752486],[0.231688,38.752369],[0.231503,38.75217]]],[[[-0.753428,37.871657],[-0.753547,37.871791],[-0.753469,37.872141],[-0.753303,37.872123],[-0.753428,37.871657]]],[[[-0.456676,38.161744],[-0.45696,38.161786],[-0.456897,38.161956],[-0.456656,38.161987],[-0.456676,38.161744]]],[[[-0.014024,38.623904],[-0.014218,38.623945],[-0.014212,38.624071],[-0.013878,38.624107],[-0.014024,38.623904]]],[[[-0.455923,38.161746],[-0.456041,38.161631],[-0.456241,38.161798],[-0.456158,38.161886],[-0.455923,38.161746]]],[[[0.197752,38.800194],[0.197713,38.800005],[0.19747,38.800026],[0.19751,38.800225],[0.197752,38.800194]]],[[[-0.761119,37.849235],[-0.761188,37.849193],[-0.761303,37.849244],[-0.761152,37.849363],[-0.761119,37.849235]]],[[[-0.761041,37.84793],[-0.761151,37.847952],[-0.761136,37.848059],[-0.761061,37.848087],[-0.761041,37.84793]]],[[[-0.760976,37.848862],[-0.761021,37.848794],[-0.761123,37.848889],[-0.761047,37.848946],[-0.760976,37.848862]]],[[[-0.761131,37.848606],[-0.76122,37.848529],[-0.761259,37.848667],[-0.761197,37.84869],[-0.761131,37.848606]]]]},"properties":{"name":"Alicante"}},{"type":"Feature","geometry":{"type":"MultiPolygon","coordinates":[[[[-0.164957,40.788631],[-0.144533,40.785443],[-0.126841,40.753317],[-0.064699,40.727407],[0.015738,40.72843],[0.026438,40.694951],[0.042175,40.691006],[0.112501,40.727137],[0.143917,40.718252],[0.226115,40.733164],[0.236523,40.701683],[0.262431,40.705852],[0.29184,40.688553],[0.267831,40.659001],[0.27883,40.630058],[0.401962,40.602381],[0.443944,40.578223],[0.437964,40.54706],[0.513165,40.516011],[0.417827,40.400591],[0.408446,40.357348],[0.278363,40.244149],[0.264005,40.208554],[0.190507,40.170433],[0.147554,40.082915],[0.049673,40.035439],[-0.005156,39.91517],[-0.06699,39.857356],[-0.088872,39.85398],[-0.188272,39.721908],[-0.264177,39.745497],[-0.276528,39.770542],[-0.328259,39.801482],[-0.377919,39.799877],[-0.396095,39.758614],[-0.456176,39.714698],[-0.530586,39.795977],[-0.577049,39.773202],[-0.588224,39.741688],[-0.652347,39.754084],[-0.656151,39.835961],[-0.691111,39.852463],[-0.71255,39.816845],[-0.730456,39.814828],[-0.773562,39.869796],[-0.832895,39.911],[-0.846297,39.947698],[-0.837944,39.97655],[-0.777646,39.998407],[-0.753621,40.046608],[-0.68294,40.044225],[-0.627222,40.076202],[-0.613589,40.070013],[-0.628533,40.102578],[-0.57864,40.137335],[-0.544187,40.251659],[-0.494515,40.228732],[-0.428072,40.243803],[-0.383626,40.264848],[-0.400408,40.294853],[-0.388637,40.306937],[-0.366273,40.305052],[-0.340617,40.339991],[-0.282026,40.36529],[-0.285244,40.386317],[-0.347355,40.44394],[-0.27264,40.473762],[-0.277638,40.501532],[-0.301837,40.515404],[-0.293286,40.611041],[-0.370483,40.613592],[-0.381126,40.66423],[-0.328818,40.680279],[-0.306998,40.659497],[-0.235991,40.691108],[-0.224034,40.754158],[-0.197176,40.784456],[-0.164957,40.788631]]],[[[0.687624,39.900631],[0.684474,39.89684],[0.686174,39.893444],[0.683726,39.897287],[0.687624,39.900631]]],[[[0.671245,39.875977],[0.67244,39.875372],[0.671807,39.874248],[0.670528,39.874802],[0.671245,39.875977]]],[[[0.669508,39.890524],[0.668192,39.891277],[0.668066,39.891984],[0.669013,39.891972],[0.669508,39.890524]]],[[[0.690537,39.895467],[0.690527,39.8959],[0.690962,39.896372],[0.691076,39.895666],[0.690537,39.895467]]],[[[0.671979,39.852294],[0.672448,39.85209],[0.672206,39.851494],[0.671844,39.851938],[0.671979,39.852294]]],[[[0.689535,39.894625],[0.689083,39.894703],[0.689153,39.895124],[0.689539,39.89513],[0.689535,39.894625]]],[[[0.672978,39.87449],[0.672559,39.874315],[0.672392,39.874473],[0.672851,39.874972],[0.672978,39.87449]]],[[[0.6708,39.891942],[0.671108,39.891788],[0.670664,39.891361],[0.670278,39.891797],[0.6708,39.891942]]],[[[0.667323,39.88945],[0.667855,39.889559],[0.667943,39.889241],[0.667598,39.889117],[0.667323,39.88945]]],[[[0.679145,39.851238],[0.679232,39.851343],[0.679688,39.85113],[0.67946,39.850795],[0.679145,39.851238]]],[[[0.670601,39.890192],[0.670265,39.890032],[0.670106,39.890334],[0.670322,39.890435],[0.670601,39.890192]]],[[[0.679483,39.850137],[0.679132,39.850121],[0.679036,39.850295],[0.679373,39.850474],[0.679483,39.850137]]],[[[0.670286,39.878818],[0.670083,39.878734],[0.669907,39.878938],[0.670137,39.879093],[0.670286,39.878818]]],[[[0.674122,39.850839],[0.673899,39.850828],[0.673906,39.851179],[0.674071,39.851201],[0.674122,39.850839]]],[[[0.673354,39.850899],[0.673437,39.85114],[0.673682,39.851132],[0.673477,39.850796],[0.673354,39.850899]]],[[[0.671108,39.891788],[0.67127,39.891981],[0.671426,39.891832],[0.671334,39.891655],[0.671108,39.891788]]],[[[0.690185,39.895397],[0.690537,39.895467],[0.690325,39.895177],[0.690185,39.895397]]],[[[0.673717,39.851293],[0.673877,39.851504],[0.674022,39.851373],[0.673717,39.851293]]],[[[0.674372,39.851137],[0.674582,39.851139],[0.674488,39.850899],[0.674372,39.851137]]],[[[0.672587,39.851851],[0.6728,39.851898],[0.67274,39.851657],[0.672587,39.851851]]],[[[0.674194,39.851305],[0.674329,39.851436],[0.674437,39.851261],[0.674194,39.851305]]]]},"properties":{"name":"Castell\u00f3n"}},{"type":"Feature","geometry":{"type":"MultiPolygon","coordinates":[[[[-0.987142,39.980725],[-0.918505,39.962675],[-0.902659,39.93185],[-0.912788,39.873053],[-0.888574,39.852111],[-0.863555,39.84741],[-0.793766,39.881434],[-0.730456,39.814828],[-0.71255,39.816845],[-0.691111,39.852463],[-0.656151,39.835961],[-0.652347,39.754084],[-0.635858,39.747867],[-0.588224,39.741688],[-0.577049,39.773202],[-0.530586,39.795977],[-0.456176,39.714698],[-0.396095,39.758614],[-0.377919,39.799877],[-0.328259,39.801482],[-0.276528,39.770542],[-0.264177,39.745497],[-0.188502,39.721938],[-0.208146,39.643295],[-0.215735,39.655116],[-0.254326,39.620822],[-0.315965,39.523438],[-0.321261,39.463399],[-0.301967,39.449312],[-0.302133,39.434182],[-0.329757,39.461586],[-0.316616,39.443337],[-0.328295,39.444425],[-0.334426,39.433659],[-0.310096,39.428025],[-0.335721,39.424689],[-0.278519,39.278478],[-0.216281,39.186341],[-0.238317,39.176713],[-0.239482,39.146921],[-0.203461,39.065999],[-0.144286,38.995276],[-0.156294,38.99811],[-0.161136,38.992367],[-0.146779,38.994427],[-0.027396,38.8616],[-0.042151,38.856452],[-0.070616,38.885721],[-0.148077,38.858431],[-0.160832,38.887391],[-0.23054,38.85349],[-0.310809,38.881511],[-0.381436,38.834899],[-0.40339,38.839714],[-0.461877,38.807645],[-0.595217,38.795097],[-0.565642,38.755427],[-0.529627,38.767095],[-0.507115,38.742975],[-0.6287,38.686554],[-0.64344,38.727766],[-0.707189,38.733819],[-0.734931,38.759445],[-0.834622,38.732431],[-0.861693,38.77089],[-0.913225,38.769606],[-0.933848,38.793976],[-0.924537,38.891752],[-0.956524,38.920123],[-0.95941,38.944582],[-1.146654,38.929353],[-1.226538,39.024673],[-1.263903,39.045094],[-1.25572,39.10617],[-1.180826,39.211822],[-1.161889,39.305418],[-1.207909,39.326237],[-1.223328,39.316112],[-1.312744,39.343166],[-1.336645,39.333996],[-1.414679,39.380298],[-1.426033,39.362757],[-1.432294,39.377582],[-1.455104,39.360849],[-1.448789,39.37819],[-1.468193,39.383331],[-1.452881,39.383741],[-1.452737,39.398669],[-1.473305,39.391147],[-1.470567,39.407509],[-1.488813,39.401648],[-1.483252,39.42246],[-1.498994,39.415357],[-1.49665,39.42932],[-1.52172,39.432677],[-1.528867,39.455266],[-1.513391,39.458268],[-1.512454,39.496269],[-1.499153,39.50045],[-1.502602,39.545616],[-1.520665,39.549965],[-1.462082,39.576621],[-1.417932,39.654936],[-1.368535,39.689615],[-1.312827,39.670484],[-1.267904,39.691148],[-1.275409,39.738641],[-1.215004,39.808774],[-1.200044,39.858706],[-1.203978,39.949344],[-1.142395,39.971841],[-1.121748,39.960851],[-1.105015,39.974975],[-0.987142,39.980725]]],[[[-1.293083,40.206923],[-1.284342,40.171497],[-1.244296,40.145969],[-1.244592,40.115803],[-1.148034,40.114497],[-1.071772,40.051109],[-1.134081,40.015752],[-1.24683,39.995181],[-1.37686,40.016499],[-1.420286,40.093514],[-1.407597,40.101404],[-1.457235,40.135057],[-1.448856,40.145342],[-1.354597,40.129473],[-1.316589,40.149656],[-1.32299,40.184856],[-1.293083,40.206923]]],[[[-0.230151,39.159838],[-0.230976,39.159783],[-0.231051,39.159916],[-0.230477,39.160074],[-0.230151,39.159838]]]]},"properties":{"name":"Valencia"}}]}